{
  "type": "FeatureCollection",
  "features": [
    {
      "type": "Feature",
      "properties": {
        "norad_id": 33901,
        "name": "COSMOS 2251 DEB",
        "group": "cosmos-2251-debris",
        "lat": 12.650882975948086,
        "lon": 27.359215155746053,
        "alt_km": 531.1289549140474,
        "timestamp": "2025-12-24T20:42:21.418436+00:00",
        "meta_object_name": "COSMOS 2251 DEB",
        "meta_object_id": "1993-036DE",
        "meta_epoch": "2025-12-24T03:14:20.032512",
        "meta_mean_motion": 15.17081005,
        "meta_eccentricity": 0.00297405,
        "meta_inclination": 73.7736,
        "meta_ra_of_asc_node": 25.1536,
        "meta_arg_of_pericenter": 155.5023,
        "meta_mean_anomaly": 204.7592,
        "meta_ephemeris_type": 0,
        "meta_classification_type": "U",
        "meta_norad_cat_id": 33901,
        "meta_element_set_no": 999,
        "meta_rev_at_epoch": 89686,
        "meta_bstar": 0.0026415356,
        "meta_mean_motion_dot": 0.00053277,
        "meta_mean_motion_ddot": 0,
        "tle_line1": "1 33901U 93036DE  25358.13495408  .00053277  00000+0  26415-2 0  9997",
        "tle_line2": "2 33901  73.7736  25.1536 0029740 155.5023 204.7592 15.17081005896860"
      },
      "geometry": {
        "type": "Point",
        "coordinates": [
          27.359215155746053,
          12.650882975948086
        ]
      }
    },
    {
      "type": "Feature",
      "properties": {
        "norad_id": 33905,
        "name": "COSMOS 2251 DEB",
        "group": "cosmos-2251-debris",
        "lat": 27.474195693753842,
        "lon": 105.56033217615149,
        "alt_km": 736.0239325571447,
        "timestamp": "2025-12-24T20:42:21.418460+00:00",
        "meta_object_name": "COSMOS 2251 DEB",
        "meta_object_id": "1993-036DJ",
        "meta_epoch": "2025-12-24T07:12:33.393600",
        "meta_mean_motion": 14.35423151,
        "meta_eccentricity": 0.00581789,
        "meta_inclination": 73.8868,
        "meta_ra_of_asc_node": 295.246,
        "meta_arg_of_pericenter": 182.278,
        "meta_mean_anomaly": 304.3937,
        "meta_ephemeris_type": 0,
        "meta_classification_type": "U",
        "meta_norad_cat_id": 33905,
        "meta_element_set_no": 999,
        "meta_rev_at_epoch": 87853,
        "meta_bstar": 0.00053407271,
        "meta_mean_motion_dot": 1.537e-05,
        "meta_mean_motion_ddot": 0,
        "tle_line1": "1 33905U 93036DJ  25358.30038650  .00001537  00000+0  53407-3 0  9996",
        "tle_line2": "2 33905  73.8868 295.2460 0058178 182.2780 304.3937 14.35423151878536"
      },
      "geometry": {
        "type": "Point",
        "coordinates": [
          105.56033217615149,
          27.474195693753842
        ]
      }
    },
    {
      "type": "Feature",
      "properties": {
        "norad_id": 33906,
        "name": "COSMOS 2251 DEB",
        "group": "cosmos-2251-debris",
        "lat": -73.41826679605097,
        "lon": -167.4819663836071,
        "alt_km": 695.9415766297216,
        "timestamp": "2025-12-24T20:42:21.418472+00:00",
        "meta_object_name": "COSMOS 2251 DEB",
        "meta_object_id": "1993-036DK",
        "meta_epoch": "2025-12-24T03:03:48.341376",
        "meta_mean_motion": 14.57270912,
        "meta_eccentricity": 0.00369331,
        "meta_inclination": 74.031,
        "meta_ra_of_asc_node": 299.8321,
        "meta_arg_of_pericenter": 327.5201,
        "meta_mean_anomaly": 43.4233,
        "meta_ephemeris_type": 0,
        "meta_classification_type": "U",
        "meta_norad_cat_id": 33906,
        "meta_element_set_no": 999,
        "meta_rev_at_epoch": 88174,
        "meta_bstar": 0.0018268359,
        "meta_mean_motion_dot": 8.319e-05,
        "meta_mean_motion_ddot": 0,
        "tle_line1": "1 33906U 93036DK  25358.12764284  .00008319  00000+0  18268-2 0  9996",
        "tle_line2": "2 33906  74.0310 299.8321 0036933 327.5201  43.4233 14.57270912881741"
      },
      "geometry": {
        "type": "Point",
        "coordinates": [
          -167.4819663836071,
          -73.41826679605097
        ]
      }
    },
    {
      "type": "Feature",
      "properties": {
        "norad_id": 33907,
        "name": "COSMOS 2251 DEB",
        "group": "cosmos-2251-debris",
        "lat": 20.47410926236241,
        "lon": -174.48975173972124,
        "alt_km": 795.602669771898,
        "timestamp": "2025-12-24T20:42:21.418482+00:00",
        "meta_object_name": "COSMOS 2251 DEB",
        "meta_object_id": "1993-036DL",
        "meta_epoch": "2025-12-24T03:29:24.237888",
        "meta_mean_motion": 14.30607649,
        "meta_eccentricity": 0.01119975,
        "meta_inclination": 74.07,
        "meta_ra_of_asc_node": 12.9342,
        "meta_arg_of_pericenter": 64.8974,
        "meta_mean_anomaly": 359.4844,
        "meta_ephemeris_type": 0,
        "meta_classification_type": "U",
        "meta_norad_cat_id": 33907,
        "meta_element_set_no": 999,
        "meta_rev_at_epoch": 86743,
        "meta_bstar": 0.0019432757,
        "meta_mean_motion_dot": 5.412e-05,
        "meta_mean_motion_ddot": 0,
        "tle_line1": "1 33907U 93036DL  25358.14541942  .00005412  00000+0  19433-2 0  9999",
        "tle_line2": "2 33907  74.0700  12.9342 0111997  64.8974 359.4844 14.30607649867434"
      },
      "geometry": {
        "type": "Point",
        "coordinates": [
          -174.48975173972124,
          20.47410926236241
        ]
      }
    },
    {
      "type": "Feature",
      "properties": {
        "norad_id": 33908,
        "name": "COSMOS 2251 DEB",
        "group": "cosmos-2251-debris",
        "lat": -70.60895574584933,
        "lon": 59.73578545183086,
        "alt_km": 777.1951939642495,
        "timestamp": "2025-12-24T20:42:21.418493+00:00",
        "meta_object_name": "COSMOS 2251 DEB",
        "meta_object_id": "1993-036DM",
        "meta_epoch": "2025-12-24T05:50:08.061504",
        "meta_mean_motion": 14.07430663,
        "meta_eccentricity": 0.0222285,
        "meta_inclination": 73.8367,
        "meta_ra_of_asc_node": 185.3525,
        "meta_arg_of_pericenter": 206.7443,
        "meta_mean_anomaly": 152.2096,
        "meta_ephemeris_type": 0,
        "meta_classification_type": "U",
        "meta_norad_cat_id": 33908,
        "meta_element_set_no": 999,
        "meta_rev_at_epoch": 85635,
        "meta_bstar": 0.0024478089,
        "meta_mean_motion_dot": 5.138e-05,
        "meta_mean_motion_ddot": 0,
        "tle_line1": "1 33908U 93036DM  25358.24314886  .00005138  00000+0  24478-2 0  9996",
        "tle_line2": "2 33908  73.8367 185.3525 0222285 206.7443 152.2096 14.07430663856351"
      },
      "geometry": {
        "type": "Point",
        "coordinates": [
          59.73578545183086,
          -70.60895574584933
        ]
      }
    },
    {
      "type": "Feature",
      "properties": {
        "norad_id": 33911,
        "name": "COSMOS 2251 DEB",
        "group": "cosmos-2251-debris",
        "lat": 73.64691523875986,
        "lon": -118.18178255633197,
        "alt_km": 628.216927416669,
        "timestamp": "2025-12-24T20:42:21.418503+00:00",
        "meta_object_name": "COSMOS 2251 DEB",
        "meta_object_id": "1993-036DQ",
        "meta_epoch": "2025-12-22T20:07:55.852896",
        "meta_mean_motion": 14.75092709,
        "meta_eccentricity": 0.00139875,
        "meta_inclination": 74.0904,
        "meta_ra_of_asc_node": 142.1847,
        "meta_arg_of_pericenter": 75.4181,
        "meta_mean_anomaly": 74.9634,
        "meta_ephemeris_type": 0,
        "meta_classification_type": "U",
        "meta_norad_cat_id": 33911,
        "meta_element_set_no": 999,
        "meta_rev_at_epoch": 88793,
        "meta_bstar": 0.0021527339,
        "meta_mean_motion_dot": 0.00014537,
        "meta_mean_motion_ddot": 0,
        "tle_line1": "1 33911U 93036DQ  25356.83884089  .00014537  00000+0  21527-2 0  9995",
        "tle_line2": "2 33911  74.0904 142.1847 0013987  75.4181  74.9634 14.75092709887936"
      },
      "geometry": {
        "type": "Point",
        "coordinates": [
          -118.18178255633197,
          73.64691523875986
        ]
      }
    },
    {
      "type": "Feature",
      "properties": {
        "norad_id": 33912,
        "name": "COSMOS 2251 DEB",
        "group": "cosmos-2251-debris",
        "lat": 51.62228927984558,
        "lon": -171.91853171241576,
        "alt_km": 721.9800222543163,
        "timestamp": "2025-12-24T20:42:21.418513+00:00",
        "meta_object_name": "COSMOS 2251 DEB",
        "meta_object_id": "1993-036DR",
        "meta_epoch": "2025-12-24T04:27:25.079616",
        "meta_mean_motion": 14.51957943,
        "meta_eccentricity": 0.00113065,
        "meta_inclination": 74.0329,
        "meta_ra_of_asc_node": 168.1627,
        "meta_arg_of_pericenter": 247.3479,
        "meta_mean_anomaly": 229.8313,
        "meta_ephemeris_type": 0,
        "meta_classification_type": "U",
        "meta_norad_cat_id": 33912,
        "meta_element_set_no": 999,
        "meta_rev_at_epoch": 88599,
        "meta_bstar": 0.0008309085,
        "meta_mean_motion_dot": 3.33e-05,
        "meta_mean_motion_ddot": 0,
        "tle_line1": "1 33912U 93036DR  25358.18570694  .00003330  00000+0  83091-3 0  9994",
        "tle_line2": "2 33912  74.0329 168.1627 0011306 247.3479 229.8313 14.51957943885998"
      },
      "geometry": {
        "type": "Point",
        "coordinates": [
          -171.91853171241576,
          51.62228927984558
        ]
      }
    }
  ]
}